NORAD_CAT_ID,OBJECT_NAME,OBJECT_TYPE,EPOCH,MEAN_MOTION,ECCENTRICITY,INCLINATION,RA_OF_ASC_NODE,ARG_OF_PERICENTER,MEAN_ANOMALY,BSTAR,MEAN_MOTION_DOT,MEAN_MOTION_DDOT,TLE_LINE0,TLE_LINE1,TLE_LINE2,SEMIMAJOR_AXIS,PERIOD,APOGEE,PERIGEE,DECAYED
55272.0,STARLINK-5310,PAYLOAD,2024-01-19 14:44:58,14.98331078,0.0002613,69.9997,211.4836,270.7564,89.3296,6.3452e-05,6.64e-06,0.0,0 STARLINK-5310,1 55272U 23010D   24019.61456343  .00000664  00000-0  63452-4 0  9995,2 55272  69.9997 211.4836 0002613 270.7564  89.3296 14.98331078 55933,6950.19,96.107,573.871,570.238,0.0
55272.0,STARLINK-5310,PAYLOAD,2024-01-19 19:33:22,14.98331896,0.0002595,69.9998,210.9787,270.5661,89.52,7.124e-05,7.57e-06,0.0,0 STARLINK-5310,1 55272U 23010D   24019.81484258  .00000757  00000-0  71240-4 0  9990,2 55272  69.9998 210.9787 0002595 270.5661  89.5200 14.98331896 55652,6950.187,96.107,573.856,570.248,0.0
55272.0,STARLINK-5310,PAYLOAD,2024-01-19 22:45:38,14.98331343,0.0002618,69.9998,210.6419,271.4165,88.6694,6.0898e-05,6.34e-06,0.0,0 STARLINK-5310,1 55272U 23010D   24019.94836310  .00000634  00000-0  60898-4 0  9995,2 55272  69.9998 210.6419 0002618 271.4165  88.6694 14.98331343 55986,6950.189,96.107,573.873,570.234,0.0
55272.0,STARLINK-5310,PAYLOAD,2024-01-20 14:46:59,14.98329427,0.0002497,70.0001,208.9586,273.385,86.7023,1.4248e-06,-7.6e-07,0.0,0 STARLINK-5310,1 55272U 23010D   24020.61596623 -.00000076  00000-0  14248-5 0  9991,2 55272  70.0001 208.9586 0002497 273.3850  86.7023 14.98329427 56083,6950.195,96.107,573.795,570.324,0.0
55272.0,STARLINK-5310,PAYLOAD,2024-01-20 19:35:23,14.9832909,0.0002512,70.0,208.4538,272.8997,87.1874,-4.546e-06,-1.47e-06,0.0,0 STARLINK-5310,1 55272U 23010D   24020.81624662 -.00000147  00000-0 -45460-5 0  9998,2 55272  70.0000 208.4538 0002512 272.8997  87.1874 14.98329090 55802,6950.196,96.107,573.807,570.315,0.0
55272.0,STARLINK-5310,PAYLOAD,2024-01-20 22:47:39,14.98328495,0.0002528,70.0,208.1168,274.0173,86.0697,-1.0899e-05,-2.23e-06,0.0,0 STARLINK-5310,1 55272U 23010D   24020.94976720 -.00000223  00000-0 -10899-4 0  9999,2 55272  70.0000 208.1168 0002528 274.0173  86.0697 14.98328495 56131,6950.198,96.107,573.82,570.306,0.0
55272.0,STARLINK-5310,PAYLOAD,2024-01-21 19:37:24,14.9833334,0.0002592,69.9999,205.9288,273.0677,87.0185,4.9661e-05,5e-06,0.0,0 STARLINK-5310,1 55272U 23010D   24021.81764172  .00000500  00000-0  49661-4 0  9997,2 55272  69.9999 205.9288 0002592 273.0677  87.0185 14.98333340 55959,6950.183,96.107,573.849,570.246,0.0
55272.0,STARLINK-5310,PAYLOAD,2024-01-21 21:13:32,14.98333277,0.000259,69.9999,205.7605,273.0893,86.997,4.7357e-05,4.72e-06,0.0,0 STARLINK-5310,1 55272U 23010D   24021.88440150  .00000472  00000-0  47357-4 0  9999,2 55272  69.9999 205.7605 0002590 273.0893  86.9970 14.98333277 56273,6950.183,96.107,573.848,570.248,0.0
55272.0,STARLINK-5310,PAYLOAD,2024-01-21 22:49:40,14.98333789,0.0002581,69.9999,205.5921,272.0319,88.0545,5.3059e-05,5.4e-06,0.0,0 STARLINK-5310,1 55272U 23010D   24021.95116085  .00000540  00000-0  53059-4 0  9996,2 55272  69.9999 205.5921 0002581 272.0319  88.0545 14.98333789 56284,6950.181,96.107,573.84,570.252,0.0
55272.0,STARLINK-5310,PAYLOAD,2024-01-22 19:39:25,14.98329956,0.0002593,69.9999,203.4041,268.7619,91.3243,6.3693e-05,6.67e-06,0.0,0 STARLINK-5310,1 55272U 23010D   24022.81904257  .00000667  00000-0  63693-4 0  9993,2 55272  69.9999 203.4041 0002593 268.7619  91.3243 14.98329956 56106,6950.193,96.107,573.86,570.256,0.0
55272.0,STARLINK-5310,PAYLOAD,2024-01-22 21:15:33,14.98329809,0.0002597,69.9999,203.2358,269.0951,90.991,5.8818e-05,6.09e-06,0.0,0 STARLINK-5310,1 55272U 23010D   24022.88580250  .00000609  00000-0  58818-4 0  9992,2 55272  69.9999 203.2358 0002597 269.0951  90.9910 14.98329809 56420,6950.193,96.107,573.863,570.254,0.0
55272.0,STARLINK-5310,PAYLOAD,2024-01-23 21:17:34,14.98331835,0.0002534,70.0003,200.712,266.6351,93.4518,5.7447e-06,-2.4e-07,0.0,0 STARLINK-5310,1 55272U 23010D   24023.88720180 -.00000024  00000-0  57447-5 0  9991,2 55272  70.0003 200.7120 0002534 266.6351  93.4518 14.98331835 56576,6950.187,96.107,573.813,570.291,0.0
55272.0,STARLINK-5310,PAYLOAD,2024-01-24 14:55:02,14.98331624,0.0002632,70.0002,198.8611,271.272,88.8138,3.7686e-05,3.57e-06,0.0,0 STARLINK-5310,1 55272U 23010D   24024.62156096  .00000357  00000-0  37686-4 0  9993,2 55272  70.0002 198.8611 0002632 271.2720  88.8138 14.98331624 56682,6950.188,96.107,573.882,570.224,0.0
55272.0,STARLINK-5310,PAYLOAD,2024-01-24 19:43:27,14.98327203,0.0002791,70.0001,198.3556,275.3203,84.7637,-2.1278e-05,-3.47e-06,0.0,0 STARLINK-5310,1 55272U 23010D   24024.82184551 -.00000347  00000-0 -21278-4 0  9993,2 55272  70.0001 198.3556 0002791 275.3203  84.7637 14.98327203 56408,6950.202,96.107,574.006,570.127,0.0
55272.0,STARLINK-5310,PAYLOAD,2024-01-24 21:19:35,14.98330527,0.0003489,69.9976,198.1766,297.376,62.7043,-0.00014932,-1.874e-05,0.0,0 STARLINK-5310,1 55272U 23010D   24024.88860732 -.00001874  00000-0 -14932-3 0  9995,2 55272  69.9976 198.1766 0003489 297.3760  62.7043 14.98330527 56729,6950.191,96.107,574.481,569.631,0.0
55272.0,STARLINK-5310,PAYLOAD,2024-01-25 11:44:49,14.98313294,0.0003218,69.9987,196.6701,281.9516,78.1283,-0.00018271,-2.271e-05,0.0,0 STARLINK-5310,1 55272U 23010D   24025.48946461 -.00002271  00000-0 -18271-3 0  9998,2 55272  69.9987 196.6701 0003218 281.9516  78.1283 14.98313294 56506,6950.245,96.108,574.346,569.873,0.0
55272.0,STARLINK-5310,PAYLOAD,2024-01-25 14:57:06,14.98311256,0.000309,69.9994,196.3337,276.7956,83.2852,-0.00015951,-1.995e-05,0.0,0 STARLINK-5310,1 55272U 23010D   24025.62298624 -.00001995  00000-0 -15951-3 0  9999,2 55272  69.9994 196.3337 0003090 276.7956  83.2852 14.98311256 56835,6950.251,96.108,574.263,569.968,0.0
55272.0,STARLINK-5310,PAYLOAD,2024-01-25 21:21:38,14.98315161,0.0003022,69.9992,195.6612,275.1867,84.8947,-0.00011923,-1.515e-05,0.0,0 STARLINK-5310,1 55272U 23010D   24025.89002569 -.00001515  00000-0 -11923-3 0  9992,2 55272  69.9992 195.6612 0003022 275.1867  84.8947 14.98315161 56875,6950.239,96.108,574.204,570.003,0.0
55272.0,STARLINK-5310,PAYLOAD,2024-01-26 11:46:49,14.98364811,0.0002655,69.9984,194.1456,274.8182,85.2674,-0.00059604,-7.204e-05,0.0,0 STARLINK-5310,1 55272U 23010D   24026.49085495 -.00007204  00000-0 -59604-3 0  9997,2 55272  69.9984 194.1456 0002655 274.8182  85.2674 14.98364811 56657,6950.085,96.105,573.795,570.105,0.0
55272.0,STARLINK-5310,PAYLOAD,2024-01-26 14:59:06,14.98327912,0.0003248,69.9987,193.8084,278.751,81.3281,5.1036e-05,5.16e-06,0.0,0 STARLINK-5310,1 55272U 23010D   24026.62437785  .00000516  00000-0  51036-4 0  9994,2 55272  69.9987 193.8084 0003248 278.7510  81.3281 14.98327912 56988,6950.199,96.107,574.322,569.807,0.0
55272.0,STARLINK-5310,PAYLOAD,2024-01-26 19:47:29,14.98334687,0.0002839,69.999,193.3038,273.2182,86.8652,0.00015071,1.706e-05,0.0,0 STARLINK-5310,1 55272U 23010D   24026.82465193  .00001706  00000-0  15071-3 0  9990,2 55272  69.9990 193.3038 0002839 273.2182  86.8652 14.98334687 56705,6950.178,96.107,574.017,570.07,0.0
55272.0,STARLINK-5310,PAYLOAD,2024-01-27 13:24:58,14.98334863,0.0003243,69.9994,191.4543,270.6558,89.423,0.00034457,4.021e-05,0.0,0 STARLINK-5310,1 55272U 23010D   24027.55901043  .00004021  00000-0  34457-3 0  9992,2 55272  69.9994 191.4543 0003243 270.6558  89.4230 14.98334863 57121,6950.178,96.107,574.297,569.789,0.0
55272.0,STARLINK-5310,PAYLOAD,2024-01-27 19:49:30,14.98345322,0.000312,69.9996,190.7809,269.5747,90.5054,0.00051074,6.009e-05,0.0,0 STARLINK-5310,1 55272U 23010D   24027.82604596  .00006009  00000-0  51074-3 0  9997,2 55272  69.9996 190.7809 0003120 269.5747  90.5054 14.98345322 56859,6950.146,96.106,574.179,569.842,0.0
55272.0,STARLINK-5310,PAYLOAD,2024-01-28 11:50:50,14.98344649,0.0002799,70.0016,189.0978,266.3973,93.6866,0.00011857,1.323e-05,0.0,0 STARLINK-5310,1 55272U 23010D   24028.49364506  .00001323  00000-0  11857-3 0  9994,2 55272  70.0016 189.0978 0002799 266.3973  93.6866 14.98344649 56957,6950.148,96.106,573.958,570.067,0.0
55272.0,STARLINK-5310,PAYLOAD,2024-01-28 13:26:58,14.9834355,0.0002831,70.0015,188.9296,264.3862,95.6974,8.71e-05,9.47e-06,0.0,0 STARLINK-5310,1 55272U 23010D   24028.56040492  .00000947  00000-0  87100-4 0  9993,2 55272  70.0015 188.9296 0002831 264.3862  95.6974 14.98343550 57277,6950.151,96.106,573.984,570.048,0.0
55272.0,STARLINK-5310,PAYLOAD,2024-01-28 21:27:39,14.98344659,0.0002788,70.0004,188.088,261.3875,98.6968,0.00014081,1.588e-05,0.0,0 STARLINK-5310,1 55272U 23010D   24028.89420308  .00001588  00000-0  14081-3 0  9996,2 55272  70.0004 188.0880 0002788 261.3875  98.6968 14.98344659 57320,6950.148,96.106,573.95,570.075,0.0
55272.0,STARLINK-5310,PAYLOAD,2024-01-29 11:52:51,14.98346109,0.0002565,70.0011,186.5741,251.7737,108.3143,4.4841e-05,4.42e-06,0.0,0 STARLINK-5310,1 55272U 23010D   24029.49503801  .00000442  00000-0  44841-4 0  9999,2 55272  70.0011 186.5741 0002565 251.7737 108.3143 14.98346109 57102,6950.143,96.106,573.791,570.225,0.0
55272.0,STARLINK-5310,PAYLOAD,2024-01-29 19:53:31,14.98341901,0.0002653,70.0008,185.732,256.6263,103.46,-2.3209e-05,-3.7e-06,0.0,0 STARLINK-5310,1 55272U 23010D   24029.82883895 -.00000370  00000-0 -23209-4 0  9997,2 55272  70.0008 185.7320 0002653 256.6263 103.4600 14.98341901 57466,6950.156,96.106,573.865,570.177,0.0
55272.0,STARLINK-5310,PAYLOAD,2024-01-30 13:31:00,14.98335123,0.0002684,70.0006,183.8801,257.7121,102.3737,4.3852e-05,4.3e-06,0.0,0 STARLINK-5310,1 55272U 23010D   24030.56319781  .00000430  00000-0  43852-4 0  9999,2 55272  70.0006 183.8801 0002684 257.7121 102.3737 14.98335123 57576,6950.177,96.107,573.907,570.177,0.0
55272.0,STARLINK-5310,PAYLOAD,2024-01-30 19:55:32,14.98332641,0.0002724,70.0009,183.2074,259.3611,100.7241,-1.0012e-06,-1.05e-06,0.0,0 STARLINK-5310,1 55272U 23010D   24030.83023944 -.00000105  00000-0 -10012-5 0  9996,2 55272  70.0009 183.2074 0002724 259.3611 100.7241 14.98332641 57307,6950.185,96.107,573.943,570.156,0.0
